1 29155U 06018A   12013.15593272 -.00000245  00000-0  10000-3 0  9039
2 29155 000.3643 081.1363 0001524 326.5953 045.8087 01.00275126 20689